{
  "type": "FeatureCollection",
  "features": [
    {
      "type": "Feature",
      "properties": {
        "norad_id": 36441,
        "name": "COSMOS 2251 DEB",
        "group": "cosmos-2251-debris",
        "lat": 4.888188736579788,
        "lon": -11.15403260800028,
        "alt_km": 535.6114283291936,
        "timestamp": "2025-12-13T20:38:51.405316+00:00",
        "meta_object_name": "COSMOS 2251 DEB",
        "meta_object_id": "1993-036BAQ",
        "meta_epoch": "2025-12-12T17:32:09.773088",
        "meta_mean_motion": 15.06765152,
        "meta_eccentricity": 0.01085376,
        "meta_inclination": 73.8352,
        "meta_ra_of_asc_node": 349.7725,
        "meta_arg_of_pericenter": 88.8842,
        "meta_mean_anomaly": 272.478,
        "meta_ephemeris_type": 0,
        "meta_classification_type": "U",
        "meta_norad_cat_id": 36441,
        "meta_element_set_no": 999,
        "meta_rev_at_epoch": 86965,
        "meta_bstar": 0.00060236622,
        "meta_mean_motion_dot": 0.00010226,
        "meta_mean_motion_ddot": 0,
        "tle_line1": "1 36441U 93036BAQ 25346.73066867  .00010226  00000+0  60237-3 0  9993",
        "tle_line2": "2 36441  73.8352 349.7725 0108537  88.8842 272.4780 15.06765152869659"
      },
      "geometry": {
        "type": "Point",
        "coordinates": [
          -11.15403260800028,
          4.888188736579788
        ]
      }
    },
    {
      "type": "Feature",
      "properties": {
        "norad_id": 36442,
        "name": "COSMOS 2251 DEB",
        "group": "cosmos-2251-debris",
        "lat": -54.55729355878175,
        "lon": -119.26952747861203,
        "alt_km": 482.0094453754482,
        "timestamp": "2025-12-13T20:38:51.405326+00:00",
        "meta_object_name": "COSMOS 2251 DEB",
        "meta_object_id": "1993-036BAR",
        "meta_epoch": "2025-12-08T10:48:39.469248",
        "meta_mean_motion": 15.27762018,
        "meta_eccentricity": 0.00088131,
        "meta_inclination": 73.9528,
        "meta_ra_of_asc_node": 48.4206,
        "meta_arg_of_pericenter": 323.6974,
        "meta_mean_anomaly": 36.3628,
        "meta_ephemeris_type": 0,
        "meta_classification_type": "U",
        "meta_norad_cat_id": 36442,
        "meta_element_set_no": 999,
        "meta_rev_at_epoch": 85850,
        "meta_bstar": 0.005804433,
        "meta_mean_motion_dot": 0.00161056,
        "meta_mean_motion_ddot": 0,
        "tle_line1": "1 36442U 93036BAR 25342.45045682  .00161056  00000+0  58044-2 0  9991",
        "tle_line2": "2 36442  73.9528  48.4206 0008813 323.6974  36.3628 15.27762018858506"
      },
      "geometry": {
        "type": "Point",
        "coordinates": [
          -119.26952747861203,
          -54.55729355878175
        ]
      }
    },
    {
      "type": "Feature",
      "properties": {
        "norad_id": 36451,
        "name": "COSMOS 2251 DEB",
        "group": "cosmos-2251-debris",
        "lat": 33.49910854766222,
        "lon": -15.80312445087452,
        "alt_km": 896.293502310793,
        "timestamp": "2025-12-13T20:38:51.405337+00:00",
        "meta_object_name": "COSMOS 2251 DEB",
        "meta_object_id": "1993-036BBA",
        "meta_epoch": "2025-12-08T10:10:07.447584",
        "meta_mean_motion": 14.18724413,
        "meta_eccentricity": 0.01840749,
        "meta_inclination": 73.9539,
        "meta_ra_of_asc_node": 342.9701,
        "meta_arg_of_pericenter": 168.3937,
        "meta_mean_anomaly": 192.1542,
        "meta_ephemeris_type": 0,
        "meta_classification_type": "U",
        "meta_norad_cat_id": 36451,
        "meta_element_set_no": 999,
        "meta_rev_at_epoch": 84164,
        "meta_bstar": 0.0010726423,
        "meta_mean_motion_dot": 2.61e-05,
        "meta_mean_motion_ddot": 0,
        "tle_line1": "1 36451U 93036BBA 25342.42369731  .00002610  00000+0  10726-2 0  9997",
        "tle_line2": "2 36451  73.9539 342.9701 0184074 168.3937 192.1542 14.18724413841646"
      },
      "geometry": {
        "type": "Point",
        "coordinates": [
          -15.80312445087452,
          33.49910854766222
        ]
      }
    },
    {
      "type": "Feature",
      "properties": {
        "norad_id": 36453,
        "name": "COSMOS 2251 DEB",
        "group": "cosmos-2251-debris",
        "lat": 62.70083980778101,
        "lon": -175.7697187402997,
        "alt_km": 662.2549367170996,
        "timestamp": "2025-12-13T20:38:51.405347+00:00",
        "meta_object_name": "COSMOS 2251 DEB",
        "meta_object_id": "1993-036BBC",
        "meta_epoch": "2025-12-12T21:52:59.987424",
        "meta_mean_motion": 14.52610543,
        "meta_eccentricity": 0.00703534,
        "meta_inclination": 73.9231,
        "meta_ra_of_asc_node": 152.0605,
        "meta_arg_of_pericenter": 55.2951,
        "meta_mean_anomaly": 94.0345,
        "meta_ephemeris_type": 0,
        "meta_classification_type": "U",
        "meta_norad_cat_id": 36453,
        "meta_element_set_no": 999,
        "meta_rev_at_epoch": 84470,
        "meta_bstar": 0.0013423006,
        "meta_mean_motion_dot": 5.65e-05,
        "meta_mean_motion_ddot": 0,
        "tle_line1": "1 36453U 93036BBC 25346.91180541  .00005650  00000+0  13423-2 0  9991",
        "tle_line2": "2 36453  73.9231 152.0605 0070353  55.2951  94.0345 14.52610543844701"
      },
      "geometry": {
        "type": "Point",
        "coordinates": [
          -175.7697187402997,
          62.70083980778101
        ]
      }
    },
    {
      "type": "Feature",
      "properties": {
        "norad_id": 36459,
        "name": "COSMOS 2251 DEB",
        "group": "cosmos-2251-debris",
        "lat": -57.24266213967078,
        "lon": -155.82966096456533,
        "alt_km": 878.968578916817,
        "timestamp": "2025-12-13T20:38:51.405357+00:00",
        "meta_object_name": "COSMOS 2251 DEB",
        "meta_object_id": "1993-036BBJ",
        "meta_epoch": "2025-12-08T08:14:17.711520",
        "meta_mean_motion": 14.26367403,
        "meta_eccentricity": 0.01135417,
        "meta_inclination": 74.048,
        "meta_ra_of_asc_node": 7.7381,
        "meta_arg_of_pericenter": 104.7075,
        "meta_mean_anomaly": 256.669,
        "meta_ephemeris_type": 0,
        "meta_classification_type": "U",
        "meta_norad_cat_id": 36459,
        "meta_element_set_no": 999,
        "meta_rev_at_epoch": 7819,
        "meta_bstar": 0.0018203568,
        "meta_mean_motion_dot": 4.661e-05,
        "meta_mean_motion_ddot": 0,
        "tle_line1": "1 36459U 93036BBJ 25342.34326055  .00004661  00000+0  18204-2 0  9995",
        "tle_line2": "2 36459  74.0480   7.7381 0113541 104.7075 256.6690 14.26367403 78192"
      },
      "geometry": {
        "type": "Point",
        "coordinates": [
          -155.82966096456533,
          -57.24266213967078
        ]
      }
    },
    {
      "type": "Feature",
      "properties": {
        "norad_id": 36470,
        "name": "COSMOS 2251 DEB",
        "group": "cosmos-2251-debris",
        "lat": -63.61359278595575,
        "lon": 107.83166513506617,
        "alt_km": 565.8544555825538,
        "timestamp": "2025-12-13T20:38:51.405367+00:00",
        "meta_object_name": "COSMOS 2251 DEB",
        "meta_object_id": "1993-036BBV",
        "meta_epoch": "2025-12-12T11:41:31.430976",
        "meta_mean_motion": 15.07283249,
        "meta_eccentricity": 0.00224171,
        "meta_inclination": 73.8441,
        "meta_ra_of_asc_node": 254.9305,
        "meta_arg_of_pericenter": 83.5922,
        "meta_mean_anomaly": 276.782,
        "meta_ephemeris_type": 0,
        "meta_classification_type": "U",
        "meta_norad_cat_id": 36470,
        "meta_element_set_no": 999,
        "meta_rev_at_epoch": 66090,
        "meta_bstar": 0.0051835663,
        "meta_mean_motion_dot": 0.00079518,
        "meta_mean_motion_ddot": 0,
        "tle_line1": "1 36470U 93036BBV 25346.48716934  .00079518  00000+0  51836-2 0  9997",
        "tle_line2": "2 36470  73.8441 254.9305 0022417  83.5922 276.7820 15.07283249660906"
      },
      "geometry": {
        "type": "Point",
        "coordinates": [
          107.83166513506617,
          -63.61359278595575
        ]
      }
    },
    {
      "type": "Feature",
      "properties": {
        "norad_id": 36528,
        "name": "COSMOS 2251 DEB",
        "group": "cosmos-2251-debris",
        "lat": 10.197125614307934,
        "lon": 146.13269229003373,
        "alt_km": 851.5668433203136,
        "timestamp": "2025-12-13T20:38:51.405389+00:00",
        "meta_object_name": "COSMOS 2251 DEB",
        "meta_object_id": "1993-036BCN",
        "meta_epoch": "2025-12-12T19:25:25.344768",
        "meta_mean_motion": 14.30644873,
        "meta_eccentricity": 0.00849129,
        "meta_inclination": 74.0164,
        "meta_ra_of_asc_node": 145.0919,
        "meta_arg_of_pericenter": 194.5132,
        "meta_mean_anomaly": 165.3579,
        "meta_ephemeris_type": 0,
        "meta_classification_type": "U",
        "meta_norad_cat_id": 36528,
        "meta_element_set_no": 999,
        "meta_rev_at_epoch": 64428,
        "meta_bstar": 0.0018022815,
        "meta_mean_motion_dot": 4.875e-05,
        "meta_mean_motion_ddot": 0,
        "tle_line1": "1 36528U 93036BCN 25346.80932112  .00004875  00000+0  18023-2 0  9990",
        "tle_line2": "2 36528  74.0164 145.0919 0084912 194.5132 165.3579 14.30644873644286"
      },
      "geometry": {
        "type": "Point",
        "coordinates": [
          146.13269229003373,
          10.197125614307934
        ]
      }
    }
  ]
}